ONEWEB-0080             
1 45426U 20020C   24309.95590598 -.00000169  00000+0 -51263-3 0  9990
2 45426  87.8884 138.4565 0001795  73.9400 286.1926 13.11418602225474
ONEWEB-0090             
1 45427U 20020D   24309.89657081  .00000393  00000+0  10741-2 0  9997
2 45427  87.8894 138.4580 0001503  84.3030 275.8269 13.11418272225439
ONEWEB-0061             
1 45428U 20020E   24309.92864170 -.00000214  00000+0 -63888-3 0  9996
2 45428  87.8885 138.4437 0001561  84.6326 275.4980 13.11415078225398
ONEWEB-0081             
1 45429U 20020F   24309.91013446  .00000632  00000+0  17465-2 0  9999
2 45429  87.8888 138.4661 0001771  87.6977 272.4354 13.11417447225506
ONEWEB-0031             
1 45431U 20020H   24309.94742108 -.00000472  00000+0 -13677-2 0  9994
2 45431  87.8895 138.4645 0001465  84.8152 275.3143 13.11418818225425
ONEWEB-0027             
1 45432U 20020J   24309.89017086 -.00000034  00000+0 -12110-3 0  9995
2 45432  87.9066 123.2455 0001223  85.5241 274.6030 13.17646954228753
ONEWEB-0064             
1 45433U 20020K   24309.94571009  .00000337  00000+0  91446-3 0  9995
2 45433  87.8877 138.4654 0001263  77.2981 282.8288 13.11429320225455
